[{"OBJECT_NAME":"OSCAR 31","OBJECT_ID":"1988-074B","EPOCH":"2026-04-05T05:07:06.686976","MEAN_MOTION":13.42602307,"ECCENTRICITY":0.00923807,"INCLINATION":90.0469,"RA_OF_ASC_NODE":21.0231,"ARG_OF_PERICENTER":277.1906,"MEAN_ANOMALY":210.941,"EPHEMERIS_TYPE":0,"CLASSIFICATION_TYPE":"U","NORAD_CAT_ID":19420,"ELEMENT_SET_NO":999,"REV_AT_EPOCH":84173,"BSTAR":0.00017790532,"MEAN_MOTION_DOT":1.11e-6,"MEAN_MOTION_DDOT":0}]
