OSCAR 31                
1 19420U 88074B   26095.21327184  .00000111  00000+0  17791-3 0  9993
2 19420  90.0469  21.0231 0092380 277.1906 210.9410 13.42602307841737
